SL-16 R/B               
1 25400U 98043G   26052.80449659  .00000065  00000+0  45999-4 0  9995
2 25400  98.8227   6.0580 0010846  63.0790 297.1496 14.26045708436729
SL-16 R/B               
1 25407U 98045B   26052.89263545  .00000029  00000+0  38738-4 0  9994
2 25407  71.0099 214.7927 0005907  34.7936 325.3572 14.16191178424861
ISS (ZARYA)             
1 25544U 98067A   26052.76529869  .00010666  00000+0  20704-3 0  9991
2 25544  51.6320 151.0701 0008511 119.8639 240.3195 15.48189327553865
CZ-4B R/B               
1 25732U 99025C   26052.73128319  .00000025  00000+0  32646-4 0  9994
2 25732  98.6661  97.3883 0037600  32.3521  78.7798 14.18261866385901
OKEAN-O                 
1 25860U 99039A   26052.76737488  .00000563  00000+0  80801-4 0  9990
2 25860  97.9479 112.8180 0001647  78.3207 281.8190 14.80307116432036
SL-16 R/B               
1 25861U 99039B   26052.76226697  .00000455  00000+0  64629-4 0  9996
2 25861  98.0003 111.8797 0013703 312.5615  47.4440 14.81706839434501
DELTA 2 R/B             
1 25876U 99041E   26052.86722830  .00001440  00000+0  26949-3 0  9993
2 25876  51.7661   4.4690 0502222 301.7108  53.5791 14.11776355360797
HELIOS 1B               
1 25977U 99064A   26052.97488348  .00001517  00000+0  17322-3 0  9995
2 25977  98.1712 314.7554 0002391  96.0966 264.0522 14.87626316682922
TERRA                   
1 25994U 99068A   26052.90511639  .00000356  00000+0  81718-4 0  9992
2 25994  97.9628 106.9401 0001574 195.4862 280.1121 14.60995854392779
SL-16 R/B               
1 26070U 00006B   26052.62133316  .00000101  00000+0  75658-4 0  9997
2 26070  71.0022 131.6249 0017790 212.4120 147.5912 14.15818701346289
TITAN 4B R/B            
1 26474U 00047B   26052.92626221  .00002780  00000+0  17909-3 0  9994
2 26474  67.9877  84.8328 0037636  54.4122 306.0524 15.09406051390536
ENVISAT                 
1 27386U 02009A   26052.81968631  .00000108  00000+0  48888-4 0  9992
2 27386  98.3701   6.7976 0001349  86.5831 289.4333 14.39030351256890
